NORAD_CAT_ID,OBJECT_NAME,OBJECT_TYPE,EPOCH,MEAN_MOTION,ECCENTRICITY,INCLINATION,RA_OF_ASC_NODE,ARG_OF_PERICENTER,MEAN_ANOMALY,BSTAR,MEAN_MOTION_DOT,MEAN_MOTION_DDOT,TLE_LINE0,TLE_LINE1,TLE_LINE2,SEMIMAJOR_AXIS,PERIOD,APOGEE,PERIGEE,DECAYED
54780.0,STARLINK-5449,PAYLOAD,2023-10-18 11:10:07,15.08842637,0.0001506,53.2174,349.0821,89.3823,270.7342,0.00013042,1.788e-05,0.0,0 STARLINK-5449,1 54780U 22175Y   23291.46536912  .00001788  00000-0  13042-3 0  9991,2 54780  53.2174 349.0821 0001506  89.3823 270.7342 15.08842637 46144,6917.872,95.437,540.779,538.695,0.0
54780.0,STARLINK-5449,PAYLOAD,2023-10-18 20:42:26,15.08844951,0.0001482,53.2175,347.298,87.0998,273.0164,0.00012688,1.732e-05,0.0,0 STARLINK-5449,1 54780U 22175Y   23291.86280735  .00001732  00000-0  12688-3 0  9998,2 54780  53.2175 347.2980 0001482  87.0998 273.0164 15.08844951 48367,6917.865,95.437,540.755,538.705,0.0
54780.0,STARLINK-5449,PAYLOAD,2023-10-19 11:00:54,15.08848393,0.0001688,53.2186,344.6227,97.0738,263.0446,0.00010889,1.446e-05,0.0,0 STARLINK-5449,1 54780U 22175Y   23292.45896616  .00001446  00000-0  10889-3 0  9998,2 54780  53.2186 344.6227 0001688  97.0738 263.0446 15.08848393 48451,6917.855,95.437,540.887,538.552,0.0
54780.0,STARLINK-5449,PAYLOAD,2023-10-19 20:33:13,15.08842751,0.0001762,53.2183,342.8374,99.6049,260.5142,7.9244e-05,9.73e-06,0.0,0 STARLINK-5449,1 54780U 22175Y   23292.85640962  .00000973  00000-0  79244-4 0  9998,2 54780  53.2183 342.8374 0001762  99.6049 260.5142 15.08842751 48511,6917.872,95.437,540.956,538.518,0.0
54780.0,STARLINK-5449,PAYLOAD,2023-10-20 02:54:46,15.08839224,0.0001793,53.2187,341.6489,92.7695,267.3502,0.000121,1.638e-05,0.0,0 STARLINK-5449,1 54780U 22175Y   23293.12137249  .00001638  00000-0  12100-3 0  9994,2 54780  53.2187 341.6489 0001793  92.7695 267.3502 15.08839224 46394,6917.883,95.438,540.988,538.507,0.0
54780.0,STARLINK-5449,PAYLOAD,2023-10-20 12:27:05,15.08842055,0.0001678,53.2185,339.8625,91.7635,268.3549,8.7531e-05,1.105e-05,0.0,0 STARLINK-5449,1 54780U 22175Y   23293.51881277  .00001105  00000-0  87531-4 0  9994,2 54780  53.2185 339.8625 0001678  91.7635 268.3549 15.08842055 48613,6917.874,95.437,540.9,538.578,0.0
54780.0,STARLINK-5449,PAYLOAD,2023-10-21 10:42:29,15.08842535,0.000179,53.2192,335.6985,82.1856,277.9339,2.2783e-05,7.5e-07,0.0,0 STARLINK-5449,1 54780U 22175Y   23294.44617732  .00000075  00000-0  22783-4 0  9993,2 54780  53.2192 335.6985 0001790  82.1856 277.9339 15.08842535 46599,6917.873,95.437,540.976,538.499,0.0
54780.0,STARLINK-5449,PAYLOAD,2023-10-21 12:17:52,15.08845344,0.0001853,53.2197,335.3996,87.5519,272.5685,2.5006e-05,1.1e-06,0.0,0 STARLINK-5449,1 54780U 22175Y   23294.51241487  .00000110  00000-0  25006-4 0  9992,2 54780  53.2197 335.3996 0001853  87.5519 272.5685 15.08845344 48765,6917.864,95.437,541.011,538.447,0.0
54780.0,STARLINK-5449,PAYLOAD,2023-10-21 20:14:48,15.08846563,0.0001668,53.2186,333.9133,89.7612,270.3571,3.37e-05,2.48e-06,0.0,0 STARLINK-5449,1 54780U 22175Y   23294.84361262  .00000248  00000-0  33700-4 0  9994,2 54780  53.2186 333.9133 0001668  89.7612 270.3571 15.08846563 48812,6917.86,95.437,540.879,538.571,0.0
54780.0,STARLINK-5449,PAYLOAD,2023-10-22 12:08:38,15.08852319,0.0001568,53.2181,330.9395,99.159,260.958,0.0001599,2.259e-05,0.0,0 STARLINK-5449,1 54780U 22175Y   23295.50600615  .00002259  00000-0  15990-3 0  9990,2 54780  53.2181 330.9395 0001568  99.1590 260.9580 15.08852319 48915,6917.843,95.437,540.792,538.623,0.0
54780.0,STARLINK-5449,PAYLOAD,2023-10-22 20:05:35,15.08831431,0.0001896,53.2199,329.4527,96.8718,263.249,-2.0468e-05,-6.14e-06,0.0,0 STARLINK-5449,1 54780U 22175Y   23295.83722179 -.00000614  00000-0 -20468-4 0  9998,2 54780  53.2199 329.4527 0001896  96.8718 263.2490 15.08831431 48967,6917.907,95.438,541.083,538.46,0.0
54780.0,STARLINK-5449,PAYLOAD,2023-10-23 08:48:40,15.08840068,0.0001513,53.2185,327.0754,92.2897,267.8268,1.4755e-05,-5.3e-07,0.0,0 STARLINK-5449,1 54780U 22175Y   23296.36713994 -.00000053  00000-0  14755-4 0  9990,2 54780  53.2185 327.0754 0001513  92.2897 267.8268 15.08840068 46880,6917.88,95.438,540.792,538.699,0.0
54780.0,STARLINK-5449,PAYLOAD,2023-10-24 08:39:26,15.08858135,0.0001746,53.2182,322.6135,100.8198,259.2991,0.0001592,2.248e-05,0.0,0 STARLINK-5449,1 54780U 22175Y   23297.36072572  .00002248  00000-0  15920-3 0  9992,2 54780  53.2182 322.6135 0001746 100.8198 259.2991 15.08858135 47039,6917.825,95.436,540.898,538.482,0.0
54780.0,STARLINK-5449,PAYLOAD,2023-10-25 06:54:51,15.0883829,0.0001543,53.2184,318.452,99.2735,260.8432,0.00013211,1.815e-05,0.0,0 STARLINK-5449,1 54780U 22175Y   23298.28810060  .00001815  00000-0  13211-3 0  9996,2 54780  53.2184 318.4520 0001543  99.2735 260.8432 15.08838290 47178,6917.886,95.438,540.818,538.683,0.0
54780.0,STARLINK-5449,PAYLOAD,2023-10-26 09:56:24,15.08845269,0.0001444,53.2181,313.3981,96.1861,263.9296,0.00012037,1.629e-05,0.0,0 STARLINK-5449,1 54780U 22175Y   23299.41417763  .00001629  00000-0  12037-3 0  9993,2 54780  53.2181 313.3981 0001444  96.1861 263.9296 15.08845269 47341,6917.864,95.437,540.728,538.73,0.0
54780.0,STARLINK-5449,PAYLOAD,2023-10-27 09:47:11,15.08850471,0.0001802,53.2185,308.9346,96.1268,263.993,7.5534e-05,9.15e-06,0.0,0 STARLINK-5449,1 54780U 22175Y   23300.40777474  .00000915  00000-0  75534-4 0  9992,2 54780  53.2185 308.9346 0001802  96.1268 263.9930 15.08850471 49651,6917.848,95.437,540.96,538.467,0.0
54780.0,STARLINK-5449,PAYLOAD,2023-10-27 17:44:08,15.08837433,0.0001695,53.2176,307.4499,96.6118,263.5067,4.6745e-05,4.56e-06,0.0,0 STARLINK-5449,1 54780U 22175Y   23300.73898391  .00000456  00000-0  46745-4 0  9992,2 54780  53.2176 307.4499 0001695  96.6118 263.5067 15.08837433 47549,6917.888,95.438,540.926,538.581,0.0
54780.0,STARLINK-5449,PAYLOAD,2023-10-28 09:37:59,15.08840818,0.0001584,53.2179,304.4763,93.2749,266.8425,3.3439e-05,2.44e-06,0.0,0 STARLINK-5449,1 54780U 22175Y   23301.40138388  .00000244  00000-0  33439-4 0  9991,2 54780  53.2179 304.4763 0001584  93.2749 266.8425 15.08840818 49809,6917.878,95.438,540.839,538.647,0.0
54780.0,STARLINK-5449,PAYLOAD,2023-10-28 17:34:55,15.08841474,0.0001677,53.2173,302.9885,89.7402,270.3783,3.1962e-05,2.21e-06,0.0,0 STARLINK-5449,1 54780U 22175Y   23301.73258377  .00000221  00000-0  31962-4 0  9992,2 54780  53.2173 302.9885 0001677  89.7402 270.3783 15.08841474 49851,6917.876,95.437,540.901,538.581,0.0
54780.0,STARLINK-5449,PAYLOAD,2023-10-28 22:21:04,15.08842982,0.0001492,53.217,302.0943,94.5413,265.5749,1.8401e-05,5e-08,0.0,0 STARLINK-5449,1 54780U 22175Y   23301.93130368  .00000005  00000-0  18401-4 0  9996,2 54780  53.2170 302.0943 0001492  94.5413 265.5749 15.08842982 47722,6917.871,95.437,540.768,538.704,0.0
54780.0,STARLINK-5449,PAYLOAD,2023-10-29 09:28:46,15.08849877,0.0001512,53.2157,300.0113,101.4947,258.6215,0.00016509,2.341e-05,0.0,0 STARLINK-5449,1 54780U 22175Y   23302.39497748  .00002341  00000-0  16509-3 0  9996,2 54780  53.2157 300.0113 0001512 101.4947 258.6215 15.08849877 49955,6917.85,95.437,540.761,538.669,0.0
54780.0,STARLINK-5449,PAYLOAD,2023-10-29 17:25:42,15.08837191,0.0001842,53.2177,298.5277,87.1362,272.9841,1.918e-05,1.7e-07,0.0,0 STARLINK-5449,1 54780U 22175Y   23302.72618636  .00000017  00000-0  19180-4 0  9991,2 54780  53.2177 298.5277 0001842  87.1362 272.9841 15.08837191 50004,6917.889,95.438,541.028,538.48,0.0
54780.0,STARLINK-5449,PAYLOAD,2023-10-30 04:33:24,15.08837338,0.0001597,53.2164,296.4459,93.3768,266.7406,0.00014491,2.019e-05,0.0,0 STARLINK-5449,1 54780U 22175Y   23303.18986790  .00002019  00000-0  14491-3 0  9994,2 54780  53.2164 296.4459 0001597  93.3768 266.7406 15.08837338 47912,6917.889,95.438,540.858,538.649,0.0
54780.0,STARLINK-5449,PAYLOAD,2023-10-30 17:16:29,15.08841029,0.000157,53.2173,294.0667,92.4922,267.625,0.00013439,1.852e-05,0.0,0 STARLINK-5449,1 54780U 22175Y   23303.71978713  .00001852  00000-0  13439-3 0  9994,2 54780  53.2173 294.0667 0001570  92.4922 267.6250 15.08841029 50159,6917.877,95.437,540.828,538.656,0.0
54780.0,STARLINK-5449,PAYLOAD,2023-10-31 09:10:21,15.08839867,0.000173,53.2179,291.0911,104.4495,255.6689,0.00011502,1.543e-05,0.0,0 STARLINK-5449,1 54780U 22175Y   23304.38218840  .00001543  00000-0  11502-3 0  9992,2 54780  53.2179 291.0911 0001730 104.4495 255.6689 15.08839867 48091,6917.881,95.438,540.943,538.549,0.0
54780.0,STARLINK-5449,PAYLOAD,2023-11-01 09:01:08,15.08844635,0.0001495,53.2179,286.6322,90.6263,269.49,0.00018908,2.723e-05,0.0,0 STARLINK-5449,1 54780U 22175Y   23305.37578822  .00002723  00000-0  18908-3 0  9999,2 54780  53.2179 286.6322 0001495  90.6263 269.4900 15.08844635 50400,6917.866,95.437,540.765,538.697,0.0
54780.0,STARLINK-5449,PAYLOAD,2023-11-01 15:22:40,15.08843402,0.0001398,53.2176,285.442,89.8269,270.2883,0.00010576,1.396e-05,0.0,0 STARLINK-5449,1 54780U 22175Y   23305.64074827  .00001396  00000-0  10576-3 0  9993,2 54780  53.2176 285.4420 0001398  89.8269 270.2883 15.08843402 48285,6917.87,95.437,540.702,538.768,0.0
54780.0,STARLINK-5449,PAYLOAD,2023-11-02 08:51:54,15.08849648,0.000144,53.2173,282.1717,86.5701,273.5455,0.00018795,2.705e-05,0.0,0 STARLINK-5449,1 54780U 22175Y   23306.36938537  .00002705  00000-0  18795-3 0  9996,2 54780  53.2173 282.1717 0001440  86.5701 273.5455 15.08849648 50550,6917.851,95.437,540.712,538.72,0.0
54780.0,STARLINK-5449,PAYLOAD,2023-11-02 15:13:27,15.08841021,0.0001495,53.2174,280.9801,80.8299,279.2862,8.1009e-05,1.002e-05,0.0,0 STARLINK-5449,1 54780U 22175Y   23306.63434968  .00001002  00000-0  81009-4 0  9993,2 54780  53.2174 280.9801 0001495  80.8299 279.2862 15.08841021 48436,6917.877,95.437,540.776,538.708,0.0
54780.0,STARLINK-5449,PAYLOAD,2023-11-03 05:31:55,15.08848035,0.0001275,53.217,278.3082,99.0005,261.1131,9.3676e-05,1.204e-05,0.0,0 STARLINK-5449,1 54780U 22175Y   23307.23050720  .00001204  00000-0  93676-4 0  9997,2 54780  53.2170 278.3082 0001275  99.0005 261.1131 15.08848035 50688,6917.856,95.437,540.603,538.839,0.0
